STARLINK-32784
1 62607U 25008W   26090.87607974  .00100702  00000+0  28426-2 0  9994
2 62607  42.9957 150.3514 0008102  67.5359 292.6352 15.35295901 69042
